STARLINK-5487           
1 55652U 23021AA  24014.39637348  .00000801  00000+0  74877-4 0  9990
2 55652  70.0005   4.3969 0002702 271.9251  88.1599 14.98332372 51161
STARLINK-5067           
1 55653U 23021AB  24014.37967705  .00000535  00000+0  52632-4 0  9991
2 55653  70.0010   4.3394 0002673 254.0791 106.0074 14.98331989 51169
STARLINK-5070           
1 55654U 23021AC  24014.36718582 -.00000198  00000+0 -88302-5 0  9999
2 55654  70.0009   4.6997 0002558 255.4981 104.5895 14.98328004 51155
STARLINK-5267           
1 55655U 23021AD  24014.33773804  .00000378  00000+0  39472-4 0  9996
2 55655  70.0008 344.7224 0002693 260.1929  99.8926 14.98332618 51642
STARLINK-5326           
1 55656U 23021AE  24014.37984354  .00000618  00000+0  59599-4 0  9994
2 55656  70.0008   4.3393 0002564 255.4037 104.6837 14.98330870 51164
STARLINK-5328           
1 55657U 23021AF  24014.34608909  .00000580  00000+0  56416-4 0  9994
2 55657  70.0005 344.7487 0002514 270.9426  89.1445 14.98331675 51645
STARLINK-5307           
1 55658U 23021AG  24014.38802388  .00001227  00000+0  11056-3 0  9995
2 55658  70.0006   4.3688 0002737 261.7920  98.2928 14.98332967 51162
STARLINK-5477           
1 55659U 23021AH  24014.34193446 -.00001198  00000+0 -92696-4 0  9999
2 55659  70.0004 344.7336 0002739 270.8550  89.2295 14.98317508 51648
STARLINK-5467           
1 55660U 23021AJ  24014.35041145 -.00005583  00000+0 -45994-3 0  9990
2 55660  70.0002 344.7646 0002494 274.8963  85.1911 14.98376334 51644
STARLINK-5475           
1 55661U 23021AK  24014.32521689  .00001667  00000+0  14751-3 0  9998
2 55661  70.0008 344.6778 0002718 260.1752  99.9100 14.98324683 51642
STARLINK-5479           
1 55662U 23021AL  24014.35026185  .00001076  00000+0  97934-4 0  9992
2 55662  70.0005 344.7755 0002474 262.8809  97.2069 14.98333201 51648
STARLINK-5473           
1 55663U 23021AM  24014.31686761  .00000418  00000+0  42801-4 0  9993
2 55663  70.0003 344.6457 0002863 267.3326  92.7506 14.98332054 51642
STARLINK-5480           
1 55664U 23021AN  24014.33358631  .00015248  00000+0  12849-2 0  9992
2 55664  70.0010 344.7056 0002233 267.7066  92.3837 14.98271509 51643
STARLINK-5474           
1 55665U 23021AP  24014.31268836  .00000899  00000+0  83119-4 0  9994
2 55665  70.0005 344.6342 0002740 262.0764  98.0084 14.98339682 51645
STARLINK-5456           
1 55667U 23021AR  24014.30868163 -.00006372  00000+0 -52636-3 0  9997
2 55667  70.0008 344.6189 0002699 266.0943  93.9908 14.98358502 51646
STARLINK-5455           
1 55668U 23021AS  24014.32939175  .00001070  00000+0  97460-4 0  9995
2 55668  70.0005 344.6904 0002633 265.8403  94.2455 14.98330036 51648
STARLINK-5459           
1 55669U 23021AT  24014.32104236  .00000821  00000+0  76572-4 0  9992
2 55669  70.0007 344.6614 0002661 263.8301  96.2555 14.98333614 51643
STARLINK-5423           
1 55670U 23021AU  24014.30852222  .00000828  00000+0  77211-4 0  9995
2 55670  70.0009 344.6167 0002626 258.9156 101.1708 14.98326436 51644
STARLINK-5460           
1 55671U 23021AV  24014.34702322  .00000979  00000+0  93500-4 0  9991
2 55671  70.0006 344.7425 0002645 266.8528  93.2327 14.96718471 51642
STARLINK-5461           
1 55672U 23021AW  24014.29177025  .00003129  00000+0  26966-3 0  9993
2 55672  69.9999 344.5580 0002941 268.8429  91.2393 14.98364325 51640
STARLINK-5463           
1 55673U 23021AX  24014.30434805 -.00000153  00000+0 -50362-5 0  9993
2 55673  70.0008 344.6021 0002690 271.1176  88.9675 14.98329982 51649
STARLINK-5462           
1 55674U 23021AY  24014.29599988  .00000853  00000+0  79302-4 0  9995
2 55674  70.0010 344.5736 0002582 255.2821 104.8052 14.98329265 51646
STARLINK-5232           
1 55675U 23021AZ  24014.28765264  .00001669  00000+0  14766-3 0  9995
2 55675  70.0012 344.5480 0002403 254.9058 105.1835 14.98325486 51649
STARLINK-5300           
1 55676U 23021BA  24014.24746999 -.00002150  00000+0 -16875-3 0  9997
2 55676  70.0009 324.9324 0002820 265.2358  94.8479 14.99148239 52128
STARLINK-5324           
1 55677U 23021BB  24014.29159897  .00000959  00000+0  88166-4 0  9994
2 55677  70.0013 324.6830 0002694 266.2297  93.8554 14.98332735 52134
STARLINK-5314           
1 55678U 23021BC  24014.30017310 -.00000218  00000+0 -10520-4 0  9999
2 55678  70.0016 344.5891 0002406 252.6878 107.4018 14.98330580 51649
STARLINK-30050          
1 55695U 23026A   24014.55838944  .00007400  00000+0  59757-4 0  9997
2 55695  43.0006 151.2166 0001823 281.5363  78.5300 15.71385167 51619
STARLINK-30040          
1 55697U 23026C   24014.53062615  .00007426  00000+0  62570-4 0  9996
2 55697  43.0010 138.3415 0000648 241.0195 119.0608 15.70346056 51757
STARLINK-30055          
1 55699U 23026E   24014.54839345 -.00007100  00000+0 -50706-4 0  9990
2 55699  43.0011 151.1215 0005438 314.4169  45.6253 15.71335945 51610
STARLINK-30064          
1 55700U 23026F   24014.54817514 -.00011725  00000+0 -86048-4 0  9993
2 55700  43.0015 151.1191 0006020 320.1166  39.9259 15.71329841 51619
STARLINK-30065          
1 55701U 23026G   24014.54955222 -.00029176  00000+0 -21998-3 0  9994
2 55701  43.0021 151.1426 0005566 310.1283  49.9097 15.71312207 51610
STARLINK-30051          
1 55704U 23026K   24014.58207949  .00007479  00000+0  60511-4 0  9992
2 55704  43.0017 183.8986 0001889 261.8285  98.2368 15.71322125 51246
STARLINK-30057          
1 55705U 23026L   24014.54168936  .00000909  00000+0  10405-4 0  9999
2 55705  43.0028 151.0774 0004636 300.2062  59.8346 15.71338526 51617
STARLINK-30060          
1 55707U 23026N   24014.54923356 -.00032400  00000+0 -24561-3 0  9996
2 55707  43.0021 151.1400 0002035 298.8834  61.1829 15.71255066 51618
STARLINK-30047          
1 55709U 23026Q   24014.60493667  .00003655  00000+0  31303-4 0  9993
2 55709  43.0019 150.6813 0001216 245.6292 114.4449 15.71358826 51626
STARLINK-30046          
1 55710U 23026R   24014.58184614 -.00008968  00000+0 -65047-4 0  9997
2 55710  43.0006 151.3883 0001728 278.3883  81.6789 15.71343521 51613
STARLINK-30037          
1 55712U 23026T   24014.58116746  .00031764  00000+0  24403-3 0  9998
2 55712  43.0014 145.0779 0001564 259.1019 100.9673 15.71424806 51684
STARLINK-30063          
1 55713U 23026U   24014.60433025  .00002350  00000+0  21355-4 0  9997
2 55713  43.0011 149.7950 0001818 301.9340  58.1351 15.71369726 51630
STARLINK-5592           
1 55741U 23028A   24014.56815449  .00000842  00000+0  78344-4 0  9993
2 55741  70.0001  64.1443 0002586 259.4995 100.5873 14.98330994 48622
STARLINK-5594           
1 55742U 23028B   24014.57232613  .00001185  00000+0  10711-3 0  9995
2 55742  70.0004  64.1592 0002394 263.6740  96.4147 14.98332984 48430
STARLINK-5602           
1 55743U 23028C   24014.57650030  .00001186  00000+0  10716-3 0  9999
2 55743  70.0000  64.1752 0002467 259.6318 100.4563 14.98332345 48431
STARLINK-5601           
1 55744U 23028D   24014.57247414 -.00009824  00000+0 -81552-3 0  9993
2 55744  69.9997  64.1585 0002957 267.1147  92.9674 14.98383955 48437
STARLINK-5565           
1 55745U 23028E   24014.51391491  .00001264  00000+0  11371-3 0  9993
2 55745  70.0002  64.3586 0002619 259.7076 100.3788 14.98331223 48424
STARLINK-5579           
1 55746U 23028F   24014.54310817  .00001212  00000+0  10938-3 0  9991
2 55746  70.0004  64.0583 0002732 255.4425 104.6431 14.98327487 48438
STARLINK-5539           
1 55747U 23028G   24014.55980468  .00000490  00000+0  48844-4 0  9993
2 55747  70.0001  64.1159 0002699 259.1608 100.9247 14.98331041 48437
STARLINK-5580           
1 55748U 23028H   24014.55562899  .00001311  00000+0  11763-3 0  9990
2 55748  70.0002  64.1012 0002725 260.9802  99.1049 14.98331260 48435
STARLINK-5560           
1 55749U 23028J   24014.53909785  .00001649  00000+0  14593-3 0  9996
2 55749  70.0001  64.0442 0002767 264.7169  95.3675 14.98328782 48433
STARLINK-5573           
1 55750U 23028K   24014.55145661  .00001477  00000+0  13154-3 0  9996
2 55750  70.0003  64.0868 0002953 262.9867  97.0956 14.98327916 48430
STARLINK-5577           
1 55751U 23028L   24014.56398466  .00001343  00000+0  12035-3 0  9990
2 55751  70.0015  64.1311 0002171 295.4343  64.6591 14.98327584 48436
STARLINK-5613           
1 55752U 23028M   24014.52641184  .00000793  00000+0  74260-4 0  9992
2 55752  70.0000  63.9980 0002602 262.9949  97.0914 14.98328245 48434
STARLINK-5617           
1 55753U 23028N   24014.54728103  .00001249  00000+0  11244-3 0  9991
2 55753  70.0004  64.0730 0002668 261.4140  98.6717 14.98330340 48430
STARLINK-5612           
1 55754U 23028P   24014.53475873  .00001183  00000+0  10692-3 0  9997
2 55754  69.9999  64.0273 0002778 261.8115  98.2728 14.98328501 48435
STARLINK-5619           
1 55755U 23028Q   24014.52239975  .00000697  00000+0  66229-4 0  9995
2 55755  70.0000  63.9769 0002531 264.4095  95.6775 14.98332620 48433
STARLINK-5614           
1 55756U 23028R   24014.51806263  .00000791  00000+0  74099-4 0  9994
2 55756  70.0002  63.9688 0002549 262.0588  98.0282 14.98333551 48430
STARLINK-5544           
1 55757U 23028S   24014.53893311  .00000511  00000+0  50612-4 0  9992
2 55757  70.0003  64.0431 0002696 262.3854  97.6999 14.98331468 48437
STARLINK-5072           
1 55758U 23028T   24014.53058594  .00000618  00000+0  59586-4 0  9996
2 55758  69.9997  64.0124 0002752 266.6841  93.4003 14.98330339 48438
STARLINK-5081           
1 55759U 23028U   24014.46942189  .00000059  00000+0  12538-4 0  9996
2 55759  70.0003  44.3670 0002612 261.4325  98.6538 14.99140087 48915
STARLINK-5532           
1 55760U 23028V   24014.51822797  .00001095  00000+0  99541-4 0  9996
2 55760  70.0001  63.9695 0002621 258.8286 101.2579 14.98329667 48430
STARLINK-5611           
1 55761U 23028W   24014.49298537  .00000324  00000+0  34957-4 0  9997
2 55761  70.0001  44.4042 0002748 265.3163  94.7682 14.98332106 48914
